[Satellite]
VERSION=1.1
NAME=KAZEOSAT 2
NICKNAME=KAZEOSAT 2
TLE1=1 40010U 14033A   17186.21993336  .00000016  00000-0  87337-5 0  9995
TLE2=2 40010  97.8936  87.6710 0015866 214.5525 145.4664 14.82107891164617
